NORAD_CAT_ID,OBJECT_NAME,OBJECT_TYPE,EPOCH,MEAN_MOTION,ECCENTRICITY,INCLINATION,RA_OF_ASC_NODE,ARG_OF_PERICENTER,MEAN_ANOMALY,BSTAR,MEAN_MOTION_DOT,MEAN_MOTION_DDOT,TLE_LINE0,TLE_LINE1,TLE_LINE2,SEMIMAJOR_AXIS,PERIOD,APOGEE,PERIGEE,DECAYED
54759.0,STARLINK-5215,PAYLOAD,2024-01-15 06:13:23,15.08858462,0.000148,53.2172,320.7921,99.8646,260.2513,0.00041495,6.325e-05,0.0,0 STARLINK-5215,1 54759U 22175B   24015.25930230  .00006325  00000-0  41495-3 0  9995,2 54759  53.2172 320.7921 0001480  99.8646 260.2513 15.08858462 61565,6917.824,95.436,540.713,538.665,0.0
54759.0,STARLINK-5215,PAYLOAD,2024-01-15 23:42:38,15.08836626,0.0001763,53.2189,317.5117,125.0475,235.0683,-8.4913e-05,-1.639e-05,0.0,0 STARLINK-5215,1 54759U 22175B   24015.98794828 -.00001639  00000-0 -84913-4 0  9994,2 54759  53.2189 317.5117 0001763 125.0475 235.0683 15.08836626 59518,6917.891,95.438,540.975,538.536,0.0
54759.0,STARLINK-5215,PAYLOAD,2024-01-16 06:04:11,15.0883671,0.0001561,53.2176,316.3318,108.7598,251.3564,-5.1521e-05,-1.108e-05,0.0,0 STARLINK-5215,1 54759U 22175B   24016.25291206 -.00001108  00000-0 -51521-4 0  9997,2 54759  53.2176 316.3318 0001561 108.7598 251.3564 15.08836710 61712,6917.89,95.438,540.835,538.676,0.0
54759.0,STARLINK-5215,PAYLOAD,2024-01-17 02:44:11,15.08854325,0.0001443,53.2167,312.4695,118.2188,241.895,0.00010211,1.338e-05,0.0,0 STARLINK-5215,1 54759U 22175B   24017.11402226  .00001338  00000-0  10211-3 0  9992,2 54759  53.2167 312.4695 0001443 118.2188 241.8950 15.08854325 59685,6917.837,95.437,540.7,538.703,0.0
54759.0,STARLINK-5215,PAYLOAD,2024-01-18 04:10:22,15.08842338,0.0001454,53.2165,307.7119,96.7711,263.3446,0.00013856,1.918e-05,0.0,0 STARLINK-5215,1 54759U 22175B   24018.17387357  .00001918  00000-0  13856-3 0  9998,2 54759  53.2165 307.7119 0001454  96.7711 263.3446 15.08842338 59843,6917.873,95.437,540.744,538.732,0.0
54759.0,STARLINK-5215,PAYLOAD,2024-01-19 02:25:46,15.08846849,0.0001703,53.2176,303.5472,118.6903,241.4261,-2.2926e-05,-6.53e-06,0.0,0 STARLINK-5215,1 54759U 22175B   24019.10123592 -.00000653  00000-0 -22926-4 0  9997,2 54759  53.2176 303.5472 0001703 118.6903 241.4261 15.08846849 62145,6917.859,95.437,540.903,538.546,0.0
54759.0,STARLINK-5215,PAYLOAD,2024-01-19 23:05:47,15.08845139,0.0001533,53.2185,299.679,94.1579,265.9588,8.4986e-05,1.065e-05,0.0,0 STARLINK-5215,1 54759U 22175B   24019.96235486  .00001065  00000-0  84986-4 0  9997,2 54759  53.2185 299.6790 0001533  94.1579 265.9588 15.08845139 62279,6917.865,95.437,540.79,538.669,0.0
54759.0,STARLINK-5215,PAYLOAD,2024-01-20 02:16:33,15.08849339,0.0001935,53.2188,299.0885,63.1037,297.0153,0.00014191,1.972e-05,0.0,0 STARLINK-5215,1 54759U 22175B   24020.09483326  .00001972  00000-0  14191-3 0  9998,2 54759  53.2188 299.0885 0001935  63.1037 297.0153 15.08849339 62294,6917.852,95.437,541.055,538.378,0.0
54759.0,STARLINK-5215,PAYLOAD,2024-01-20 18:10:25,15.08838965,0.000166,53.2181,296.1175,77.4459,282.6719,6.3384e-05,7.21e-06,0.0,0 STARLINK-5215,1 54759U 22175B   24020.75724149  .00000721  00000-0  63384-4 0  9992,2 54759  53.2181 296.1175 0001660  77.4459 282.6719 15.08838965 60231,6917.884,95.438,540.897,538.6,0.0
54759.0,STARLINK-5215,PAYLOAD,2024-01-20 22:56:35,15.0883766,0.00017,53.2184,295.2244,70.3002,289.8173,6.2251e-05,7.03e-06,0.0,0 STARLINK-5215,1 54759U 22175B   24020.95596311  .00000703  00000-0  62251-4 0  9994,2 54759  53.2184 295.2244 0001700  70.3002 289.8173 15.08837660 62429,6917.888,95.438,540.929,538.577,0.0
54759.0,STARLINK-5215,PAYLOAD,2024-01-21 00:31:58,15.08838366,0.0001861,53.2189,294.9269,71.9764,288.1431,7.741e-05,9.44e-06,0.0,0 STARLINK-5215,1 54759U 22175B   24021.02220305  .00000944  00000-0  77410-4 0  9990,2 54759  53.2189 294.9269 0001861  71.9764 288.1431 15.08838366 62431,6917.885,95.438,541.038,538.463,0.0
54759.0,STARLINK-5215,PAYLOAD,2024-01-21 22:47:21,15.08850866,0.0001608,53.2182,290.7626,93.0365,267.0811,7.7265e-05,9.42e-06,0.0,0 STARLINK-5215,1 54759U 22175B   24021.94955343  .00000942  00000-0  77265-4 0  9994,2 54759  53.2182 290.7626 0001608  93.0365 267.0811 15.08850866 62578,6917.847,95.437,540.825,538.6,0.0
54759.0,STARLINK-5215,PAYLOAD,2024-01-22 00:22:44,15.08853558,0.0001644,53.2174,290.465,84.2152,275.9027,0.00014456,2.014e-05,0.0,0 STARLINK-5215,1 54759U 22175B   24022.01579223  .00002014  00000-0  14456-3 0  9996,2 54759  53.2174 290.4650 0001644  84.2152 275.9027 15.08853558 60429,6917.839,95.437,540.841,538.567,0.0
54759.0,STARLINK-5215,PAYLOAD,2024-01-22 22:38:08,15.08841682,0.0001408,53.2176,286.3008,100.7501,259.3649,8.3778e-05,1.046e-05,0.0,0 STARLINK-5215,1 54759U 22175B   24022.94315713  .00001046  00000-0  83778-4 0  9998,2 54759  53.2176 286.3008 0001408 100.7501 259.3649 15.08841682 62728,6917.875,95.437,540.714,538.766,0.0
54759.0,STARLINK-5215,PAYLOAD,2024-01-23 00:13:31,15.08842915,0.0001535,53.2176,286.0023,114.0029,246.1124,9.4146e-05,1.211e-05,0.0,0 STARLINK-5215,1 54759U 22175B   24023.00939562  .00001211  00000-0  94146-4 0  9995,2 54759  53.2176 286.0023 0001535 114.0029 246.1124 15.08842915 60579,6917.871,95.437,540.798,538.675,0.0
54759.0,STARLINK-5215,PAYLOAD,2024-01-23 22:28:55,15.0884842,0.0001448,53.2171,281.8385,116.372,243.7421,-3.8142e-06,-3.49e-06,0.0,0 STARLINK-5215,1 54759U 22175B   24023.93675154 -.00000349  00000-0 -38142-5 0  9999,2 54759  53.2171 281.8385 0001448 116.3720 243.7421 15.08848420 62879,6917.855,95.437,540.721,538.718,0.0
54759.0,STARLINK-5215,PAYLOAD,2024-01-24 00:04:18,15.08848944,0.000142,53.2172,281.5417,114.6725,245.4415,8.6287e-06,-1.51e-06,0.0,0 STARLINK-5215,1 54759U 22175B   24024.00299119 -.00000151  00000-0  86287-5 0  9994,2 54759  53.2172 281.5417 0001420 114.6725 245.4415 15.08848944 62883,6917.853,95.437,540.7,538.736,0.0
54759.0,STARLINK-5215,PAYLOAD,2024-01-24 20:44:20,15.08828247,0.0001621,53.2173,277.679,120.9471,239.1681,0.00022932,3.362e-05,0.0,0 STARLINK-5215,1 54759U 22175B   24024.86412343  .00003362  00000-0  22932-3 0  9995,2 54759  53.2173 277.6790 0001621 120.9471 239.1681 15.08828247 60859,6917.916,95.438,540.903,538.66,0.0
54759.0,STARLINK-5215,PAYLOAD,2024-01-24 22:19:43,15.08836318,0.0001463,53.217,277.3823,117.8987,242.2154,-3.4888e-05,-8.43e-06,0.0,0 STARLINK-5215,1 54759U 22175B   24024.93035925 -.00000843  00000-0 -34888-4 0  9997,2 54759  53.2170 277.3823 0001463 117.8987 242.2154 15.08836318 63021,6917.892,95.438,540.769,538.745,0.0
54759.0,STARLINK-5215,PAYLOAD,2024-01-24 23:55:06,15.08836584,0.0001436,53.2171,277.0848,116.0826,244.0314,-2.2736e-05,-6.5e-06,0.0,0 STARLINK-5215,1 54759U 22175B   24024.99659917 -.00000650  00000-0 -22736-4 0  9991,2 54759  53.2171 277.0848 0001436 116.0826 244.0314 15.08836584 63033,6917.891,95.438,540.749,538.762,0.0
54759.0,STARLINK-5215,PAYLOAD,2024-01-25 22:10:30,15.08842387,0.0001444,53.2174,272.9213,122.1121,238.0012,-8.8868e-06,-4.29e-06,0.0,0 STARLINK-5215,1 54759U 22175B   24025.92396232 -.00000429  00000-0 -88868-5 0  9996,2 54759  53.2174 272.9213 0001444 122.1121 238.0012 15.08842387 63172,6917.873,95.437,540.737,538.739,0.0
54759.0,STARLINK-5215,PAYLOAD,2024-01-25 23:45:53,15.0882772,0.0001436,53.2174,272.6232,112.8596,247.2548,0.00024752,3.652e-05,0.0,0 STARLINK-5215,1 54759U 22175B   24025.99020536  .00003652  00000-0  24752-3 0  9993,2 54759  53.2174 272.6232 0001436 112.8596 247.2548 15.08827720 61025,6917.918,95.438,540.776,538.79,0.0
54759.0,STARLINK-5215,PAYLOAD,2024-01-26 23:36:40,15.08847449,0.0001197,53.217,268.163,98.6023,261.5105,0.00018683,2.687e-05,0.0,0 STARLINK-5215,1 54759U 22175B   24026.98379682  .00002687  00000-0  18683-3 0  9995,2 54759  53.2170 268.1630 0001197  98.6023 261.5105 15.08847449 61177,6917.858,95.437,540.551,538.895,0.0
54759.0,STARLINK-5215,PAYLOAD,2024-01-27 20:16:41,15.08841964,0.0001147,53.2169,264.2985,104.3797,255.7322,7.2291e-05,8.63e-06,0.0,0 STARLINK-5215,1 54759U 22175B   24027.84492419  .00000863  00000-0  72291-4 0  9995,2 54759  53.2169 264.2985 0001147 104.3797 255.7322 15.08841964 61300,6917.874,95.437,540.533,538.946,0.0
54759.0,STARLINK-5215,PAYLOAD,2024-01-27 21:52:04,15.08841633,0.0001173,53.2173,263.9984,97.4443,262.6683,6.6705e-05,7.74e-06,0.0,0 STARLINK-5215,1 54759U 22175B   24027.91116374  .00000774  00000-0  66705-4 0  9990,2 54759  53.2173 263.9984 0001173  97.4443 262.6683 15.08841633 63479,6917.875,95.437,540.552,538.929,0.0
54759.0,STARLINK-5215,PAYLOAD,2024-01-28 01:02:50,15.08842702,0.000123,53.2175,263.4019,85.5752,274.5381,7.7663e-05,9.48e-06,0.0,0 STARLINK-5215,1 54759U 22175B   24028.04364318  .00000948  00000-0  77663-4 0  9996,2 54759  53.2175 263.4019 0001230  85.5752 274.5381 15.08842702 63497,6917.872,95.437,540.588,538.886,0.0
54759.0,STARLINK-5215,PAYLOAD,2024-01-28 21:42:51,15.08845677,0.0001622,53.2182,259.5332,67.108,293.0084,-3.8997e-05,-9.09e-06,0.0,0 STARLINK-5215,1 54759U 22175B   24028.90476597 -.00000909  00000-0 -38997-4 0  9990,2 54759  53.2182 259.5332 0001622  67.1080 293.0084 15.08845677 63629,6917.863,95.437,540.85,538.606,0.0
54759.0,STARLINK-5215,PAYLOAD,2024-01-30 15:02:52,15.08850385,0.0001488,53.2168,251.8037,74.9235,285.1921,0.00011744,1.582e-05,0.0,0 STARLINK-5215,1 54759U 22175B   24030.62699360  .00001582  00000-0  11744-3 0  9993,2 54759  53.2168 251.8037 0001488  74.9235 285.1921 15.08850385 63880,6917.849,95.437,540.743,538.684,0.0
54759.0,STARLINK-5215,PAYLOAD,2024-01-30 19:49:00,15.08866828,0.0001598,53.2167,250.9194,88.5766,271.541,0.00031491,4.731e-05,0.0,0 STARLINK-5215,1 54759U 22175B   24030.82570332  .00004731  00000-0  31491-3 0  9992,2 54759  53.2167 250.9194 0001598  88.5766 271.5410 15.08866828 61750,6917.798,95.436,540.769,538.558,0.0
54759.0,STARLINK-5215,PAYLOAD,2024-01-31 14:53:39,15.08846965,0.0001739,53.2162,247.348,108.2548,251.8633,5.5786e-05,6e-06,0.0,0 STARLINK-5215,1 54759U 22175B   24031.62059091  .00000600  00000-0  55786-4 0  9990,2 54759  53.2162 247.3480 0001739 108.2548 251.8633 15.08846965 64030,6917.859,95.437,540.927,538.521,0.0
